 [  
{"label":"åäBeijing010","name":"åä","pinyin":"Beijing","zip":"010"},  
{"label":"éåChongqing023","name":"éå","pinyin":"Chongqing","zip":"023"},  
{"label":"äæShanghai021","name":"äæ","pinyin":"Shanghai","zip":"021"},  
{"label":"åæTianjin022","name":"åæ","pinyin":"Tianjin","zip":"022"},  
{"label":"éæChangchun0431","name":"éæ","pinyin":"Changchun","zip":"0431"},  
{"label":"éæChangsha0731","name":"éæ","pinyin":"Changsha","zip":"0731"},  
{"label":"ååChangzhou0519","name":"åå","pinyin":"Changzhou","zip":"0519"},  
{"label":"æéChengdu028","name":"æé","pinyin":"Chengdu","zip":"028"},  
{"label":"åèDalian0411","name":"åè","pinyin":"Dalian","zip":"0411"},  
{"label":"äèDongguan0769","name":"äè","pinyin":"Dongguan","zip":"0769"},  
{"label":"äåFoshan0757","name":"äå","pinyin":"Foshan","zip":"0757"},  
{"label":"çåFuzhou0591","name":"çå","pinyin":"Fuzhou","zip":"0591"},  
{"label":"ååGuangzhou020","name":"åå","pinyin":"Guangzhou","zip":"020"},  
{"label":"èéGuiyang0851","name":"èé","pinyin":"Guiyang","zip":"0851"},  
{"label":"ååæHaerbin0451","name":"ååæ","pinyin":"Haerbin","zip":"0451"},  
{"label":"æåHaikou0898","name":"æå","pinyin":"Haikou","zip":"0898"},  
{"label":"ééHandan0310","name":"éé","pinyin":"Handan","zip":"0310"},  
{"label":"æåHangzhou0571","name":"æå","pinyin":"Hangzhou","zip":"0571"},  
{"label":"åèHefei0551","name":"åè","pinyin":"Hefei","zip":"0551"},  
{"label":"æåHuizhou0752","name":"æå","pinyin":"Huizhou","zip":"0752"},  
{"label":"çäJiaozuo0391","name":"çä","pinyin":"Jiaozuo","zip":"0391"},  
{"label":"ååJiaxing0573","name":"åå","pinyin":"Jiaxing","zip":"0573"},  
{"label":"åæJilin0423","name":"åæ","pinyin":"Jilin","zip":"0423"},  
{"label":"æåJinan0531","name":"æå","pinyin":"Jinan","zip":"0531"},  
{"label":"ææKunming0871","name":"ææ","pinyin":"Kunming","zip":"0871"},  
{"label":"ååLanzhou0931","name":"åå","pinyin":"Lanzhou","zip":"0931"},  
{"label":"æåLiuzhou0772","name":"æå","pinyin":"Liuzhou","zip":"0772"},  
{"label":"æéLuoyang0379","name":"æé","pinyin":"Luoyang","zip":"0379"},  
{"label":"åæNanchang0791","name":"åæ","pinyin":"Nanchang","zip":"0791"},  
{"label":"åäNanjing025","name":"åä","pinyin":"Nanjing","zip":"025"},  
{"label":"ååNanning0771","name":"åå","pinyin":"Nanning","zip":"0771"},  
{"label":"åéNantong0513","name":"åé","pinyin":"Nantong","zip":"0513"},  
{"label":"åæNingbo0574","name":"åæ","pinyin":"Ningbo","zip":"0574"},  
{"label":"éåQingdao0532","name":"éå","pinyin":"Qingdao","zip":"0532"},  
{"label":"æåQuanzhou0595","name":"æå","pinyin":"Quanzhou","zip":"0595"},  
{"label":"æéShenyang024","name":"æé","pinyin":"Shenyang","zip":"024"},  
{"label":"æåShenzhen0755","name":"æå","pinyin":"Shenzhen","zip":"0755"},  
{"label":"çååShijiazhuang0311","name":"çåå","pinyin":"Shijiazhuang","zip":"0311"},  
{"label":"èåSuzhou0512","name":"èå","pinyin":"Suzhou","zip":"0512"},  
{"label":"ååTaizhou0576","name":"åå","pinyin":"Taizhou","zip":"0576"},  
{"label":"ååTangshan0315","name":"åå","pinyin":"Tangshan","zip":"0315"},  
{"label":"æåWeifang0536","name":"æå","pinyin":"Weifang","zip":"0536"},  
{"label":"åæWeihai0631","name":"åæ","pinyin":"Weihai","zip":"0631"},  
{"label":"ææWuhan027","name":"ææ","pinyin":"Wuhan","zip":"027"},  
{"label":"æéWuxi0510","name":"æé","pinyin":"Wuxi","zip":"0510"},  
{"label":"åéXiamen0592","name":"åé","pinyin":"Xiamen","zip":"0592"},  
{"label":"èåXian029","name":"èå","pinyin":"Xian","zip":"029"},  
{"label":"èæXuchang0374","name":"èæ","pinyin":"Xuchang","zip":"0374"},  
{"label":"ååXuzhou0516","name":"åå","pinyin":"Xuzhou","zip":"0516"},  
{"label":"æåYangzhou0514","name":"æå","pinyin":"Yangzhou","zip":"0514"},  
{"label":"çåYantai0535","name":"çå","pinyin":"Yantai","zip":"0535"},  
{"label":"æåZhangzhou0596","name":"æå","pinyin":"Zhangzhou","zip":"0596"},  
{"label":"éåZhengzhou0371","name":"éå","pinyin":"Zhengzhou","zip":"0371"},  
{"label":"äåZhongshan0760","name":"äå","pinyin":"Zhongshan","zip":"0760"},  
{"label":"çæZhuhai0756","name":"çæ","pinyin":"Zhuhai","zip":"0756"},  
{"label":"éåAba0837","name":"éå","pinyin":"Aba","zip":"0837"},  
{"label":"éåèAkesu0997","name":"éåè","pinyin":"Akesu","zip":"0997"},  
{"label":"éæåçAlashanmeng0483","name":"éæåç","pinyin":"Alashanmeng","zip":"0483"},  
{"label":"éåæAletai0906","name":"éåæ","pinyin":"Aletai","zip":"0906"},  
{"label":"ééAli0897","name":"éé","pinyin":"Ali","zip":"0897"},  
{"label":"ååAnkang0915","name":"åå","pinyin":"Ankang","zip":"0915"},  
{"label":"ååAnqing0556","name":"åå","pinyin":"Anqing","zip":"0556"},  
{"label":"éåAnshan0412","name":"éå","pinyin":"Anshan","zip":"0412"},  
{"label":"åéAnshun0853","name":"åé","pinyin":"Anshun","zip":"0853"},  
{"label":"åéAnyang0372","name":"åé","pinyin":"Anyang","zip":"0372"},  
{"label":"çåBaicheng0436","name":"çå","pinyin":"Baicheng","zip":"0436"},  
{"label":"çèBaise0776","name":"çè","pinyin":"Baise","zip":"0776"},  
{"label":"çåBaishan0439","name":"çå","pinyin":"Baishan","zip":"0439"},  
{"label":"çéBaiyin0943","name":"çé","pinyin":"Baiyin","zip":"0943"},  
{"label":"èåBangbu0552","name":"èå","pinyin":"Bangbu","zip":"0552"},  
{"label":"äåBaoding0312","name":"äå","pinyin":"Baoding","zip":"0312"},  
{"label":"åéBaoji0917","name":"åé","pinyin":"Baoji","zip":"0917"},  
{"label":"äåBaoshan0875","name":"äå","pinyin":"Baoshan","zip":"0875"},  
{"label":"ååBaotou0472","name":"åå","pinyin":"Baotou","zip":"0472"},  
{"label":"ååæåBayannaoer0478","name":"ååæå","pinyin":"Bayannaoer","zip":"0478"},  
{"label":"åééæBayinguoleng0996","name":"åééæ","pinyin":"Bayinguoleng","zip":"0996"},  
{"label":"åäBazhong0827","name":"åä","pinyin":"Bazhong","zip":"0827"},  
{"label":"åæBeihai0779","name":"åæ","pinyin":"Beihai","zip":"0779"},  
{"label":"ææBenxi0414","name":"ææ","pinyin":"Benxi","zip":"0414"},  
{"label":"æèBijie0857","name":"æè","pinyin":"Bijie","zip":"0857"},  
{"label":"æåBinzhou0543","name":"æå","pinyin":"Binzhou","zip":"0543"},  
{"label":"åååæBoertala0909","name":"åååæ","pinyin":"Boertala","zip":"0909"},  
{"label":"äåBozhou0558","name":"äå","pinyin":"Bozhou","zip":"0558"},  
{"label":"æåCangzhou0317","name":"æå","pinyin":"Cangzhou","zip":"0317"},  
{"label":"ååChangde0736","name":"åå","pinyin":"Changde","zip":"0736"},  
{"label":"æéChangdu0895","name":"æé","pinyin":"Changdu","zip":"0895"},  
{"label":"æåChangji0997","name":"æå","pinyin":"Changji","zip":"0997"},  
{"label":"éæChangzhi0355","name":"éæ","pinyin":"Changzhi","zip":"0355"},  
{"label":"åæChaohu0565","name":"åæ","pinyin":"Chaohu","zip":"0565"},  
{"label":"æéChaoyang0421","name":"æé","pinyin":"Chaoyang","zip":"0421"},  
{"label":"æåChaozhou0768","name":"æå","pinyin":"Chaozhou","zip":"0768"},  
{"label":"æåChengde0314","name":"æå","pinyin":"Chengde","zip":"0314"},  
{"label":"éåChenzhou0735","name":"éå","pinyin":"Chenzhou","zip":"0735"},  
{"label":"èåChifeng0476","name":"èå","pinyin":"Chifeng","zip":"0476"},  
{"label":"æåChizhou0566","name":"æå","pinyin":"Chizhou","zip":"0566"},  
{"label":"ååChongzuo0771","name":"åå","pinyin":"Chongzuo","zip":"0771"},  
{"label":"æéChuxiong0875","name":"æé","pinyin":"Chuxiong","zip":"0875"},  
{"label":"æåChuzhou0550","name":"æå","pinyin":"Chuzhou","zip":"0550"},  
{"label":"åçDali0872","name":"åç","pinyin":"Dali","zip":"0872"},  
{"label":"ääDandong0415","name":"ää","pinyin":"Dandong","zip":"0415"},  
{"label":"ååDaqing0459","name":"åå","pinyin":"Daqing","zip":"0459"},  
{"label":"ååDatong0352","name":"åå","pinyin":"Datong","zip":"0352"},  
{"label":"ååååDaxinganling0457","name":"åååå","pinyin":"Daxinganling","zip":"0457"},  
{"label":"èåDazhou0818","name":"èå","pinyin":"Dazhou","zip":"0818"},  
{"label":"ååDehong0692","name":"åå","pinyin":"Dehong","zip":"0692"},  
{"label":"åéDeyang0838","name":"åé","pinyin":"Deyang","zip":"0838"},  
{"label":"ååDezhou0534","name":"åå","pinyin":"Dezhou","zip":"0534"},  
{"label":"åèDingxi0932","name":"åè","pinyin":"Dingxi","zip":"0932"},  
{"label":"èåDiqing0887","name":"èå","pinyin":"Diqing","zip":"0887"},  
{"label":"äèDongying0546","name":"äè","pinyin":"Dongying","zip":"0546"},  
{"label":"éååæEerduosi0477","name":"éååæ","pinyin":"Eerduosi","zip":"0477"},  
{"label":"ææEnshi0718","name":"ææ","pinyin":"Enshi","zip":"0718"},  
{"label":"éåEzhou0711","name":"éå","pinyin":"Ezhou","zip":"0711"},  
{"label":"éåæFangchenggang0770","name":"éåæ","pinyin":"Fangchenggang","zip":"0770"},  
{"label":"æéFushun0413","name":"æé","pinyin":"Fushun","zip":"0413"},  
{"label":"éæFuxin0418","name":"éæ","pinyin":"Fuxin","zip":"0418"},  
{"label":"ééFuyang0558","name":"éé","pinyin":"Fuyang","zip":"0558"},  
{"label":"æåFuzhou0794","name":"æå","pinyin":"Fuzhou","zip":"0794"},  
{"label":"çåGannan0941","name":"çå","pinyin":"Gannan","zip":"0941"},  
{"label":"èåGanzhou0797","name":"èå","pinyin":"Ganzhou","zip":"0797"},  
{"label":"çåGanzi0836","name":"çå","pinyin":"Ganzi","zip":"0836"},  
{"label":"ååGuangan0826","name":"åå","pinyin":"Guangan","zip":"0826"},  
{"label":"ååGuangyuan0839","name":"åå","pinyin":"Guangyuan","zip":"0839"},  
{"label":"èæGuigang0775","name":"èæ","pinyin":"Guigang","zip":"0775"},  
{"label":"ææGuilin0773","name":"ææ","pinyin":"Guilin","zip":"0773"},  
{"label":"ææGuoluo0975","name":"ææ","pinyin":"Guoluo","zip":"0975"},  
{"label":"ååGuyuan0954","name":"åå","pinyin":"Guyuan","zip":"0954"},  
{"label":"æåHaibei0970","name":"æå","pinyin":"Haibei","zip":"0970"},  
{"label":"æäHaidong0972","name":"æä","pinyin":"Haidong","zip":"0972"},  
{"label":"æåHainan0974","name":"æå","pinyin":"Hainan","zip":"0974"},  
{"label":"æèHaixi0977","name":"æè","pinyin":"Haixi","zip":"0977"},  
{"label":"ååHami0902","name":"åå","pinyin":"Hami","zip":"0902"},  
{"label":"æäHanzhong0916","name":"æä","pinyin":"Hanzhong","zip":"0916"},  
{"label":"éåHebi0392","name":"éå","pinyin":"Hebi","zip":"0392"},  
{"label":"ææHechi0778","name":"ææ","pinyin":"Hechi","zip":"0778"},  
{"label":"éåHegang0468","name":"éå","pinyin":"Hegang","zip":"0468"},  
{"label":"éæHeihe0456","name":"éæ","pinyin":"Heihe","zip":"0456"},  
{"label":"èæHengshui0318","name":"èæ","pinyin":"Hengshui","zip":"0318"},  
{"label":"èéHengyang0734","name":"èé","pinyin":"Hengyang","zip":"0734"},  
{"label":"åçåHetiandi0903","name":"åçå","pinyin":"Hetiandi","zip":"0903"},  
{"label":"ææHeyuan0762","name":"ææ","pinyin":"Heyuan","zip":"0762"},  
{"label":"èæHeze0530","name":"èæ","pinyin":"Heze","zip":"0530"},  
{"label":"èåHezhou0774","name":"èå","pinyin":"Hezhou","zip":"0774"},  
{"label":"çæHonghe0873","name":"çæ","pinyin":"Honghe","zip":"0873"},  
{"label":"æåHuaian0517","name":"æå","pinyin":"Huaian","zip":"0517"},  
{"label":"æåHuaibei0561","name":"æå","pinyin":"Huaibei","zip":"0561"},  
{"label":"æåHuaihua0745","name":"æå","pinyin":"Huaihua","zip":"0745"},  
{"label":"æåHuainan0554","name":"æå","pinyin":"Huainan","zip":"0554"},  
{"label":"éåHuanggang0713","name":"éå","pinyin":"Huanggang","zip":"0713"},  
{"label":"éåHuangnan0973","name":"éå","pinyin":"Huangnan","zip":"0973"},  
{"label":"éåHuangshan0559","name":"éå","pinyin":"Huangshan","zip":"0559"},  
{"label":"éçHuangshi0714","name":"éç","pinyin":"Huangshi","zip":"0714"},  
{"label":"ååæçHuhehaote0471","name":"ååæç","pinyin":"Huhehaote","zip":"0471"},  
{"label":"èèåHuludao0429","name":"èèå","pinyin":"Huludao","zip":"0429"},  
{"label":"åäèåHulunbeier0470","name":"åäèå","pinyin":"Hulunbeier","zip":"0470"},  
{"label":"æåHuzhou0572","name":"æå","pinyin":"Huzhou","zip":"0572"},  
{"label":"äææJiamusi0454","name":"äææ","pinyin":"Jiamusi","zip":"0454"},  
{"label":"æéJiangmen0750","name":"æé","pinyin":"Jiangmen","zip":"0750"},  
{"label":"ååJian0796","name":"åå","pinyin":"Jian","zip":"0796"},  
{"label":"åååJiayuguan0937","name":"ååå","pinyin":"Jiayuguan","zip":"0937"},  
{"label":"æéJieyang0663","name":"æé","pinyin":"Jieyang","zip":"0663"},  
{"label":"éæJinchang0935","name":"éæ","pinyin":"Jinchang","zip":"0935"},  
{"label":"æåJincheng0356","name":"æå","pinyin":"Jincheng","zip":"0356"},  
{"label":"æåéJingdezhen0798","name":"æåé","pinyin":"Jingdezhen","zip":"0798"},  
{"label":"èéJingmen0724","name":"èé","pinyin":"Jingmen","zip":"0724"},  
{"label":"èåJingzhou0716","name":"èå","pinyin":"Jingzhou","zip":"0716"},  
{"label":"éåJinhua0579","name":"éå","pinyin":"Jinhua","zip":"0579"},  
{"label":"æåJining0537","name":"æå","pinyin":"Jining","zip":"0537"},  
{"label":"æäJinzhong0354","name":"æä","pinyin":"Jinzhong","zip":"0354"},  
{"label":"éåJinzhou0416","name":"éå","pinyin":"Jinzhou","zip":"0416"},  
{"label":"äæJiujiang0792","name":"äæ","pinyin":"Jiujiang","zip":"0792"},  
{"label":"éæJiuquan0937","name":"éæ","pinyin":"Jiuquan","zip":"0937"},  
{"label":"éèJixi0467","name":"éè","pinyin":"Jixi","zip":"0467"},  
{"label":"ååKaifeng0378","name":"åå","pinyin":"Kaifeng","zip":"0378"},  
{"label":"åäåKashidi0998","name":"åäå","pinyin":"Kashidi","zip":"0998"},  
{"label":"åæçäKelamayi0990","name":"åæçä","pinyin":"Kelamayi","zip":"0990"},  
{"label":"åååKezile0908","name":"ååå","pinyin":"Kezile","zip":"0908"},  
{"label":"æåLaibin0772","name":"æå","pinyin":"Laibin","zip":"0772"},  
{"label":"èèLaiwu0634","name":"èè","pinyin":"Laiwu","zip":"0634"},  
{"label":"ååLangfang0316","name":"åå","pinyin":"Langfang","zip":"0316"},  
{"label":"æèLasa0891","name":"æè","pinyin":"Lasa","zip":"0891"},  
{"label":"äåLeshan0833","name":"äå","pinyin":"Leshan","zip":"0833"},  
{"label":"ååLiangshan0834","name":"åå","pinyin":"Liangshan","zip":"0834"},  
{"label":"èäæLianyungang0518","name":"èäæ","pinyin":"Lianyungang","zip":"0518"},  
{"label":"èåLiaocheng0635","name":"èå","pinyin":"Liaocheng","zip":"0635"},  
{"label":"èéLiaoyang0419","name":"èé","pinyin":"Liaoyang","zip":"0419"},  
{"label":"èæLiaoyuan0437","name":"èæ","pinyin":"Liaoyuan","zip":"0437"},  
{"label":"äæLijiang0888","name":"äæ","pinyin":"Lijiang","zip":"0888"},  
{"label":"äæLincang0883","name":"äæ","pinyin":"Lincang","zip":"0883"},  
{"label":"äæLinfen0357","name":"äæ","pinyin":"Linfen","zip":"0357"},  
{"label":"äåLinxia0930","name":"äå","pinyin":"Linxia","zip":"0930"},  
{"label":"äæLinyi0539","name":"äæ","pinyin":"Linyi","zip":"0539"},  
{"label":"æèLinzhi0894","name":"æè","pinyin":"Linzhi","zip":"0894"},  
{"label":"äæLishui0578","name":"äæ","pinyin":"Lishui","zip":"0578"},  
{"label":"ååLiuan0564","name":"åå","pinyin":"Liuan","zip":"0564"},  
{"label":"åçæLiupanshui0858","name":"åçæ","pinyin":"Liupanshui","zip":"0858"},  
{"label":"éåLongnan0939","name":"éå","pinyin":"Longnan","zip":"0939"},  
{"label":"éåLongyan0597","name":"éå","pinyin":"Longyan","zip":"0597"},  
{"label":"ååLoudi0738","name":"åå","pinyin":"Loudi","zip":"0738"},  
{"label":"ææLuohe0395","name":"ææ","pinyin":"Luohe","zip":"0395"},  
{"label":"æåLuzhou0830","name":"æå","pinyin":"Luzhou","zip":"0830"},  
{"label":"åæLvliang0358","name":"åæ","pinyin":"Lvliang","zip":"0358"},  
{"label":"ééåMaanshan0555","name":"ééå","pinyin":"Maanshan","zip":"0555"},  
{"label":"èåMaoming0668","name":"èå","pinyin":"Maoming","zip":"0668"},  
{"label":"çåMeishan028","name":"çå","pinyin":"Meishan","zip":"028"},  
{"label":"æåMeizhou0753","name":"æå","pinyin":"Meizhou","zip":"0753"},  
{"label":"çéMianyang0816","name":"çé","pinyin":"Mianyang","zip":"0816"},  
{"label":"çäæMudanjiang0453","name":"çäæ","pinyin":"Mudanjiang","zip":"0453"},  
{"label":"ååNanchong0817","name":"åå","pinyin":"Nanchong","zip":"0817"},  
{"label":"ååNanping0599","name":"åå","pinyin":"Nanping","zip":"0599"},  
{"label":"åéNanyang0377","name":"åé","pinyin":"Nanyang","zip":"0377"},  
{"label":"éæNaqu0896","name":"éæ","pinyin":"Naqu","zip":"0896"},  
{"label":"åæNeijiang0832","name":"åæ","pinyin":"Neijiang","zip":"0832"},  
{"label":"ååNingde0593","name":"åå","pinyin":"Ningde","zip":"0593"},  
{"label":"ææNujiang0886","name":"ææ","pinyin":"Nujiang","zip":"0886"},  
{"label":"çéPanjin0427","name":"çé","pinyin":"Panjin","zip":"0427"},  
{"label":"ææèPanzhihua0812","name":"ææè","pinyin":"Panzhihua","zip":"0812"},  
{"label":"åéåPingdingshan0375","name":"åéå","pinyin":"Pingdingshan","zip":"0375"},  
{"label":"ååPingliang0933","name":"åå","pinyin":"Pingliang","zip":"0933"},  
{"label":"èäPingxiang0799","name":"èä","pinyin":"Pingxiang","zip":"0799"},  
{"label":"ææPuer0879","name":"ææ","pinyin":"Puer","zip":"0879"},  
{"label":"èçPutian0594","name":"èç","pinyin":"Putian","zip":"0594"},  
{"label":"æéPuyang0393","name":"æé","pinyin":"Puyang","zip":"0393"},  
{"label":"éäQiandong0855","name":"éä","pinyin":"Qiandong","zip":"0855"},  
{"label":"éåQiannan0854","name":"éå","pinyin":"Qiannan","zip":"0854"},  
{"label":"éèåQianxinan0859","name":"éèå","pinyin":"Qianxinan","zip":"0859"},  
{"label":"åéQingyang0934","name":"åé","pinyin":"Qingyang","zip":"0934"},  
{"label":"æèQingyuan0763","name":"æè","pinyin":"Qingyuan","zip":"0763"},  
{"label":"ççåQinhuangdao0335","name":"ççå","pinyin":"Qinhuangdao","zip":"0335"},  
{"label":"éåQinzhou0777","name":"éå","pinyin":"Qinzhou","zip":"0777"},  
{"label":"ééååQiqihaer0452","name":"ééåå","pinyin":"Qiqihaer","zip":"0452"},  
{"label":"äåæQitaihe0464","name":"äåæ","pinyin":"Qitaihe","zip":"0464"},  
{"label":"æéQujing0874","name":"æé","pinyin":"Qujing","zip":"0874"},  
{"label":"èåQuzhou0570","name":"èå","pinyin":"Quzhou","zip":"0570"},  
{"label":"æååRikaze0892","name":"æåå","pinyin":"Rikaze","zip":"0892"},  
{"label":"æçRizhao0633","name":"æç","pinyin":"Rizhao","zip":"0633"},  
{"label":"äéåSanmenxia0398","name":"äéå","pinyin":"Sanmenxia","zip":"0398"},  
{"label":"äæSanming0598","name":"äæ","pinyin":"Sanming","zip":"0598"},  
{"label":"ääSanya0899","name":"ää","pinyin":"Sanya","zip":"0899"},  
{"label":"åæShangluo0914","name":"åæ","pinyin":"Shangluo","zip":"0914"},  
{"label":"åäShangqiu0370","name":"åä","pinyin":"Shangqiu","zip":"0370"},  
{"label":"äéShangrao0793","name":"äé","pinyin":"Shangrao","zip":"0793"},  
{"label":"ååShannan0893","name":"åå","pinyin":"Shannan","zip":"0893"},  
{"label":"æåShantou0754","name":"æå","pinyin":"Shantou","zip":"0754"},  
{"label":"æåShanwei0660","name":"æå","pinyin":"Shanwei","zip":"0660"},  
{"label":"éåShaoguan0751","name":"éå","pinyin":"Shaoguan","zip":"0751"},  
{"label":"çåShaoxing0575","name":"çå","pinyin":"Shaoxing","zip":"0575"},  
{"label":"ééShaoyang0739","name":"éé","pinyin":"Shaoyang","zip":"0739"},  
{"label":"ååShiyan0719","name":"åå","pinyin":"Shiyan","zip":"0719"},  
{"label":"çååShizuishan0952","name":"çåå","pinyin":"Shizuishan","zip":"0952"},  
{"label":"åéåShuangyashan0469","name":"åéå","pinyin":"Shuangyashan","zip":"0469"},  
{"label":"æåShuozhou0349","name":"æå","pinyin":"Shuozhou","zip":"0349"},  
{"label":"ååSiping0434","name":"åå","pinyin":"Siping","zip":"0434"},  
{"label":"æåSongyuan0438","name":"æå","pinyin":"Songyuan","zip":"0438"},  
{"label":"çåSuihua0455","name":"çå","pinyin":"Suihua","zip":"0455"},  
{"label":"éåSuining0825","name":"éå","pinyin":"Suining","zip":"0825"},  
{"label":"éåSuizhou0722","name":"éå","pinyin":"Suizhou","zip":"0722"},  
{"label":"åèSuqian0527","name":"åè","pinyin":"Suqian","zip":"0527"},  
{"label":"ååSuzhou0557","name":"åå","pinyin":"Suzhou","zip":"0557"},  
{"label":"åååTachengdi0901","name":"ååå","pinyin":"Tachengdi","zip":"0901"},  
{"label":"æåTaian0538","name":"æå","pinyin":"Taian","zip":"0538"},  
{"label":"ååTaiyuan0351","name":"åå","pinyin":"Taiyuan","zip":"0351"},  
{"label":"æåTaizhou0523","name":"æå","pinyin":"Taizhou","zip":"0523"},  
{"label":"åæTianshui0938","name":"åæ","pinyin":"Tianshui","zip":"0938"},  
{"label":"éåTieling0410","name":"éå","pinyin":"Tieling","zip":"0410"},  
{"label":"éåTongchuan0919","name":"éå","pinyin":"Tongchuan","zip":"0919"},  
{"label":"éåTonghua0435","name":"éå","pinyin":"Tonghua","zip":"0435"},  
{"label":"éèTongliao0475","name":"éè","pinyin":"Tongliao","zip":"0475"},  
{"label":"ééTongling0562","name":"éé","pinyin":"Tongling","zip":"0562"},  
{"label":"éäTongren0856","name":"éä","pinyin":"Tongren","zip":"0856"},  
{"label":"åéçTulufan0995","name":"åéç","pinyin":"Tulufan","zip":"0995"},  
{"label":"æåWeinan0913","name":"æå","pinyin":"Weinan","zip":"0913"},  
{"label":"æåWenshan0876","name":"æå","pinyin":"Wenshan","zip":"0876"},  
{"label":"æåWenzhou0577","name":"æå","pinyin":"Wenzhou","zip":"0577"},  
{"label":"äæWuhai0473","name":"äæ","pinyin":"Wuhai","zip":"0473"},  
{"label":"èæWuhu0553","name":"èæ","pinyin":"Wuhu","zip":"0553"},  
{"label":"äåååWulanchabu0474","name":"äååå","pinyin":"Wulanchabu","zip":"0474"},  
{"label":"äéæéWulumuqi0991","name":"äéæé","pinyin":"Wulumuqi","zip":"0991"},  
{"label":"æåWuwei0935","name":"æå","pinyin":"Wuwei","zip":"0935"},  
{"label":"ååWuzhong0953","name":"åå","pinyin":"Wuzhong","zip":"0953"},  
{"label":"æåWuzhou0774","name":"æå","pinyin":"Wuzhou","zip":"0774"},  
{"label":"èæXiangfan0710","name":"èæ","pinyin":"Xiangfan","zip":"0710"},  
{"label":"ææXiangtan0732","name":"ææ","pinyin":"Xiangtan","zip":"0732"},  
{"label":"æèXiangxi0743","name":"æè","pinyin":"Xiangxi","zip":"0743"},  
{"label":"ååXianning0715","name":"åå","pinyin":"Xianning","zip":"0715"},  
{"label":"åéXianyang029","name":"åé","pinyin":"Xianyang","zip":"029"},  
{"label":"åæXiaogan0712","name":"åæ","pinyin":"Xiaogan","zip":"0712"},  
{"label":"éæéåçXilinguolemeng0479","name":"éæéåç","pinyin":"Xilinguolemeng","zip":"0479"},  
{"label":"ååçXinganmeng0482","name":"ååç","pinyin":"Xinganmeng","zip":"0482"},  
{"label":"éåXingtai0319","name":"éå","pinyin":"Xingtai","zip":"0319"},  
{"label":"èåXining0971","name":"èå","pinyin":"Xining","zip":"0971"},  
{"label":"æäXinxiang0373","name":"æä","pinyin":"Xinxiang","zip":"0373"},  
{"label":"äéXinyang0376","name":"äé","pinyin":"Xinyang","zip":"0376"},  
{"label":"æäXinyu0790","name":"æä","pinyin":"Xinyu","zip":"0790"},  
{"label":"ååXinzhou0350","name":"åå","pinyin":"Xinzhou","zip":"0350"},  
{"label":"èåççXishuangbanna0691","name":"èåçç","pinyin":"Xishuangbanna","zip":"0691"},  
{"label":"ååXuancheng0563","name":"åå","pinyin":"Xuancheng","zip":"0563"},  
{"label":"éåYaan0835","name":"éå","pinyin":"Yaan","zip":"0835"},  
{"label":"ååYanan0911","name":"åå","pinyin":"Yanan","zip":"0911"},  
{"label":"åèYanbian0433","name":"åè","pinyin":"Yanbian","zip":"0433"},  
{"label":"çåYancheng0515","name":"çå","pinyin":"Yancheng","zip":"0515"},  
{"label":"éæYangjiang0662","name":"éæ","pinyin":"Yangjiang","zip":"0662"},  
{"label":"éæYangquan0353","name":"éæ","pinyin":"Yangquan","zip":"0353"},  
{"label":"ååYibin0831","name":"åå","pinyin":"Yibin","zip":"0831"},  
{"label":"åæYichang0717","name":"åæ","pinyin":"Yichang","zip":"0717"},  
{"label":"äæYichun0458","name":"äæ","pinyin":"Yichun","zip":"0458"},  
{"label":"åæYichun0795","name":"åæ","pinyin":"Yichun","zip":"0795"},  
{"label":"äçåèåYilihasake0999","name":"äçåèå","pinyin":"Yilihasake","zip":"0999"},  
{"label":"éåYinchuan0951","name":"éå","pinyin":"Yinchuan","zip":"0951"},  
{"label":"èåYingkou0417","name":"èå","pinyin":"Yingkou","zip":"0417"},  
{"label":"éæYingtan0701","name":"éæ","pinyin":"Yingtan","zip":"0701"},  
{"label":"çéYiyang0737","name":"çé","pinyin":"Yiyang","zip":"0737"},  
{"label":"æåYongzhou0746","name":"æå","pinyin":"Yongzhou","zip":"0746"},  
{"label":"åéYueyang0730","name":"åé","pinyin":"Yueyang","zip":"0730"},  
{"label":"çæYulin0775","name":"çæ","pinyin":"Yulin","zip":"0775"},  
{"label":"ææYulin0912","name":"ææ","pinyin":"Yulin","zip":"0912"},  
{"label":"èåYuncheng0359","name":"èå","pinyin":"Yuncheng","zip":"0359"},  
{"label":"äæYunfu0766","name":"äæ","pinyin":"Yunfu","zip":"0766"},  
{"label":"çæYushu0976","name":"çæ","pinyin":"Yushu","zip":"0976"},  
{"label":"çæYuxi0877","name":"çæ","pinyin":"Yuxi","zip":"0877"},  
{"label":"æåZaozhuang0623","name":"æå","pinyin":"Zaozhuang","zip":"0623"},  
{"label":"ååçZhangjiajie0744","name":"ååç","pinyin":"Zhangjiajie","zip":"0744"},  
{"label":"åååZhangjiakou0313","name":"ååå","pinyin":"Zhangjiakou","zip":"0313"},  
{"label":"åæZhangye0936","name":"åæ","pinyin":"Zhangye","zip":"0936"},  
{"label":"ææZhanjiang0759","name":"ææ","pinyin":"Zhanjiang","zip":"0759"},  
{"label":"èåZhaoqing0758","name":"èå","pinyin":"Zhaoqing","zip":"0758"},  
{"label":"æéZhaotong0870","name":"æé","pinyin":"Zhaotong","zip":"0870"},  
{"label":"éæZhenjiang0511","name":"éæ","pinyin":"Zhenjiang","zip":"0511"},  
{"label":"äåZhongwei0955","name":"äå","pinyin":"Zhongwei","zip":"0955"},  
{"label":"ååZhoukou0394","name":"åå","pinyin":"Zhoukou","zip":"0394"},  
{"label":"èåZhoushan0580","name":"èå","pinyin":"Zhoushan","zip":"0580"},  
{"label":"ééåZhumadian0396","name":"ééå","pinyin":"Zhumadian","zip":"0396"},  
{"label":"ææZhuzhou0731","name":"ææ","pinyin":"Zhuzhou","zip":"0731"},  
{"label":"æåZibo0533","name":"æå","pinyin":"Zibo","zip":"0533"},  
{"label":"èèZigong0813","name":"èè","pinyin":"Zigong","zip":"0813"},  
{"label":"èéZiyang028","name":"èé","pinyin":"Ziyang","zip":"028"},  
{"label":"éäZunyi0852","name":"éä","pinyin":"Zunyi","zip":"0852"},  
{"label":"éåAcheng0451","name":"éå","pinyin":"Acheng","zip":"0451"},  
{"label":"åçAnfu0796","name":"åç","pinyin":"Anfu","zip":"0796"},  
{"label":"ååAnji0572","name":"åå","pinyin":"Anji","zip":"0572"},  
{"label":"ååAnning0871","name":"åå","pinyin":"Anning","zip":"0871"},  
{"label":"åäAnqiu0536","name":"åä","pinyin":"Anqiu","zip":"0536"},  
{"label":"åæAnxi0595","name":"åæ","pinyin":"Anxi","zip":"0595"},  
{"label":"åäAnyi0791","name":"åä","pinyin":"Anyi","zip":"0791"},  
{"label":"åèAnyuan0797","name":"åè","pinyin":"Anyuan","zip":"0797"},  
{"label":"ååBaoying0514","name":"åå","pinyin":"Baoying","zip":"0514"},  
{"label":"ååBayan0451","name":"åå","pinyin":"Bayan","zip":"0451"},  
{"label":"ææBinhai0515","name":"ææ","pinyin":"Binhai","zip":"0515"},  
{"label":"ååBinxian0451","name":"åå","pinyin":"Binxian","zip":"0451"},  
{"label":"åéBinyang0771","name":"åé","pinyin":"Binyang","zip":"0771"},  
{"label":"çåBishan023","name":"çå","pinyin":"Bishan","zip":"023"},  
{"label":"åçBoai0391","name":"åç","pinyin":"Boai","zip":"0391"},  
{"label":"åçBoluo0752","name":"åç","pinyin":"Boluo","zip":"0752"},  
{"label":"ååBoxing0543","name":"åå","pinyin":"Boxing","zip":"0543"},  
{"label":"èåCangnan0577","name":"èå","pinyin":"Cangnan","zip":"0577"},  
{"label":"èåCangshan0539","name":"èå","pinyin":"Cangshan","zip":"0539"},  
{"label":"æåCaoxian0530","name":"æå","pinyin":"Caoxian","zip":"0530"},  
{"label":"éåChangdao0535","name":"éå","pinyin":"Changdao","zip":"0535"},  
{"label":"éäChangfeng0551","name":"éä","pinyin":"Changfeng","zip":"0551"},  
{"label":"éæChanghai0411","name":"éæ","pinyin":"Changhai","zip":"0411"},  
{"label":"éäChangle0591","name":"éä","pinyin":"Changle","zip":"0591"},  
{"label":"æäChangle0536","name":"æä","pinyin":"Changle","zip":"0536"},  
{"label":"ååChangshan0570","name":"åå","pinyin":"Changshan","zip":"0570"},  
{"label":"åçChangshu0512","name":"åç","pinyin":"Changshu","zip":"0512"},  
{"label":"éæChangtai0596","name":"éæ","pinyin":"Changtai","zip":"0596"},  
{"label":"éæChangting0597","name":"éæ","pinyin":"Changting","zip":"0597"},  
{"label":"éåChangxing0572","name":"éå","pinyin":"Changxing","zip":"0572"},  
{"label":"æéChangyi0536","name":"æé","pinyin":"Changyi","zip":"0536"},  
{"label":"æåChaoan0768","name":"æå","pinyin":"Chaoan","zip":"0768"},  
{"label":"åèChenggong0871","name":"åè","pinyin":"Chenggong","zip":"0871"},  
{"label":"ååChengkou023","name":"åå","pinyin":"Chengkou","zip":"023"},  
{"label":"ææChengwu0530","name":"ææ","pinyin":"Chengwu","zip":"0530"},  
{"label":"èåChiping0635","name":"èå","pinyin":"Chiping","zip":"0635"},  
{"label":"åäChongren0794","name":"åä","pinyin":"Chongren","zip":"0794"},  
{"label":"åäChongyi0797","name":"åä","pinyin":"Chongyi","zip":"0797"},  
{"label":"ååChongzhou028","name":"åå","pinyin":"Chongzhou","zip":"028"},  
{"label":"æåChunan0571","name":"æå","pinyin":"Chunan","zip":"0571"},  
{"label":"ææCixi0574","name":"ææ","pinyin":"Cixi","zip":"0574"},  
{"label":"äåConghua020","name":"äå","pinyin":"Conghua","zip":"020"},  
{"label":"æéCongyang0556","name":"æé","pinyin":"Congyang","zip":"0556"},  
{"label":"åäDafeng0515","name":"åä","pinyin":"Dafeng","zip":"0515"},  
{"label":"ååDaishan0580","name":"åå","pinyin":"Daishan","zip":"0580"},  
{"label":"çåDangshan0557","name":"çå","pinyin":"Dangshan","zip":"0557"},  
{"label":"åæDangtu0555","name":"åæ","pinyin":"Dangtu","zip":"0555"},  
{"label":"ååDanxian0530","name":"åå","pinyin":"Danxian","zip":"0530"},  
{"label":"äéDanyang0511","name":"äé","pinyin":"Danyang","zip":"0511"},  
{"label":"ååDapu0753","name":"åå","pinyin":"Dapu","zip":"0753"},  
{"label":"åçDatian0598","name":"åç","pinyin":"Datian","zip":"0598"},  
{"label":"åéDayi028","name":"åé","pinyin":"Dayi","zip":"028"},  
{"label":"åäDayu0797","name":"åä","pinyin":"Dayu","zip":"0797"},  
{"label":"åèDazu023","name":"åè","pinyin":"Dazu","zip":"023"},  
{"label":"ååDean0792","name":"åå","pinyin":"Dean","zip":"0792"},  
{"label":"ååDehua0595","name":"åå","pinyin":"Dehua","zip":"0595"},  
{"label":"åæDehui0431","name":"åæ","pinyin":"Dehui","zip":"0431"},  
{"label":"çåDengfeng0371","name":"çå","pinyin":"Dengfeng","zip":"0371"},  
{"label":"åæDeqing0572","name":"åæ","pinyin":"Deqing","zip":"0572"},  
{"label":"ååDeqing0758","name":"åå","pinyin":"Deqing","zip":"0758"},  
{"label":"ååDexing0793","name":"åå","pinyin":"Dexing","zip":"0793"},  
{"label":"ççDianbai0668","name":"çç","pinyin":"Dianbai","zip":"0668"},  
{"label":"åæDianjiang023","name":"åæ","pinyin":"Dianjiang","zip":"023"},  
{"label":"ååDingnan0797","name":"åå","pinyin":"Dingnan","zip":"0797"},  
{"label":"åéDingtao0530","name":"åé","pinyin":"Dingtao","zip":"0530"},  
{"label":"åèDingyuan0550","name":"åè","pinyin":"Dingyuan","zip":"0550"},  
{"label":"äéDonga0635","name":"äé","pinyin":"Donga","zip":"0635"},  
{"label":"äæDonghai0518","name":"äæ","pinyin":"Donghai","zip":"0518"},  
{"label":"äæDongming0530","name":"äæ","pinyin":"Dongming","zip":"0530"},  
{"label":"äåDongping0538","name":"äå","pinyin":"Dongping","zip":"0538"},  
{"label":"äåDongshan0596","name":"äå","pinyin":"Dongshan","zip":"0596"},  
{"label":"äåDongtai0515","name":"äå","pinyin":"Dongtai","zip":"0515"},  
{"label":"æåDongtou0577","name":"æå","pinyin":"Dongtou","zip":"0577"},  
{"label":"ääDongxiang0794","name":"ää","pinyin":"Dongxiang","zip":"0794"},  
{"label":"äéDongyang0579","name":"äé","pinyin":"Dongyang","zip":"0579"},  
{"label":"äæDongyuan0762","name":"äæ","pinyin":"Dongyuan","zip":"0762"},  
{"label":"äèDongzhi0566","name":"äè","pinyin":"Dongzhi","zip":"0566"},  
{"label":"éæDuchang0792","name":"éæ","pinyin":"Duchang","zip":"0792"},  
{"label":"éæåDujiangyan028","name":"éæå","pinyin":"Dujiangyan","zip":"028"},  
{"label":"æåEnping0750","name":"æå","pinyin":"Enping","zip":"0750"},  
{"label":"æåFaku024","name":"æå","pinyin":"Faku","zip":"024"},  
{"label":"çæFanchang0553","name":"çæ","pinyin":"Fanchang","zip":"0553"},  
{"label":"ææFangzheng0451","name":"ææ","pinyin":"Fangzheng","zip":"0451"},  
{"label":"èåFeicheng0538","name":"èå","pinyin":"Feicheng","zip":"0538"},  
{"label":"èäFeidong0551","name":"èä","pinyin":"Feidong","zip":"0551"},  
{"label":"èèFeixi0551","name":"èè","pinyin":"Feixi","zip":"0551"},  
{"label":"èåFeixian0539","name":"èå","pinyin":"Feixian","zip":"0539"},  
{"label":"äåFengcheng0795","name":"äå","pinyin":"Fengcheng","zip":"0795"},  
{"label":"äéFengdu023","name":"äé","pinyin":"Fengdu","zip":"023"},  
{"label":"ååFenghua0574","name":"åå","pinyin":"Fenghua","zip":"0574"},  
{"label":"åèFengjie023","name":"åè","pinyin":"Fengjie","zip":"023"},  
{"label":"ååFengkai0758","name":"åå","pinyin":"Fengkai","zip":"0758"},  
{"label":"äéFengshun0753","name":"äé","pinyin":"Fengshun","zip":"0753"},  
{"label":"ååFengtai0554","name":"åå","pinyin":"Fengtai","zip":"0554"},  
{"label":"äåFengxian0516","name":"äå","pinyin":"Fengxian","zip":"0516"},  
{"label":"åæFengxin0795","name":"åæ","pinyin":"Fengxin","zip":"0795"},  
{"label":"åéFengyang0550","name":"åé","pinyin":"Fengyang","zip":"0550"},  
{"label":"ååFenyi0790","name":"åå","pinyin":"Fenyi","zip":"0790"},  
{"label":"äåFogang0763","name":"äå","pinyin":"Fogang","zip":"0763"},  
{"label":"çåFuan0593","name":"çå","pinyin":"Fuan","zip":"0593"},  
{"label":"çéFuding0593","name":"çé","pinyin":"Fuding","zip":"0593"},  
{"label":"ææFuliang0798","name":"ææ","pinyin":"Fuliang","zip":"0798"},  
{"label":"åæFumin0871","name":"åæ","pinyin":"Fumin","zip":"0871"},  
{"label":"éåFunan0558","name":"éå","pinyin":"Funan","zip":"0558"},  
{"label":"éåFuning0515","name":"éå","pinyin":"Funing","zip":"0515"},  
{"label":"çæFuqing0591","name":"çæ","pinyin":"Fuqing","zip":"0591"},  
{"label":"åéFuyang0571","name":"åé","pinyin":"Fuyang","zip":"0571"},  
{"label":"èåGanxian0797","name":"èå","pinyin":"Ganxian","zip":"0797"},  
{"label":"èæGanyu0518","name":"èæ","pinyin":"Ganyu","zip":"0518"},  
{"label":"éåGaoan0795","name":"éå","pinyin":"Gaoan","zip":"0795"},  
{"label":"èåGaocheng0311","name":"èå","pinyin":"Gaocheng","zip":"0311"},  
{"label":"éæGaochun025","name":"éæ","pinyin":"Gaochun","zip":"025"},  
{"label":"çåGaolan0931","name":"çå","pinyin":"Gaolan","zip":"0931"},  
{"label":"ééGaoling029","name":"éé","pinyin":"Gaoling","zip":"029"},  
{"label":"éåGaomi0536","name":"éå","pinyin":"Gaomi","zip":"0536"},  
{"label":"ééGaoqing0533","name":"éé","pinyin":"Gaoqing","zip":"0533"},  
{"label":"éåGaotang0635","name":"éå","pinyin":"Gaotang","zip":"0635"},  
{"label":"éèGaoyao0758","name":"éè","pinyin":"Gaoyao","zip":"0758"},  
{"label":"ééGaoyi0311","name":"éé","pinyin":"Gaoyi","zip":"0311"},  
{"label":"ééGaoyou0514","name":"éé","pinyin":"Gaoyou","zip":"0514"},  
{"label":"éåGaozhou0668","name":"éå","pinyin":"Gaozhou","zip":"0668"},  
{"label":"åäGongyi0371","name":"åä","pinyin":"Gongyi","zip":"0371"},  
{"label":"åæGuangchang0794","name":"åæ","pinyin":"Guangchang","zip":"0794"},  
{"label":"ååGuangde0563","name":"åå","pinyin":"Guangde","zip":"0563"},  
{"label":"åäGuangfeng0793","name":"åä","pinyin":"Guangfeng","zip":"0793"},  
{"label":"ååGuangning0758","name":"åå","pinyin":"Guangning","zip":"0758"},  
{"label":"åéGuangrao0546","name":"åé","pinyin":"Guangrao","zip":"0546"},  
{"label":"åæGuangze0599","name":"åæ","pinyin":"Guangze","zip":"0599"},  
{"label":"çåGuannan0518","name":"çå","pinyin":"Guannan","zip":"0518"},  
{"label":"ååGuanxian0635","name":"åå","pinyin":"Guanxian","zip":"0635"},  
{"label":"çäGuanyun0518","name":"çä","pinyin":"Guanyun","zip":"0518"},  
{"label":"èæGuixi0701","name":"èæ","pinyin":"Guixi","zip":"0701"},  
{"label":"åçGutian0593","name":"åç","pinyin":"Gutian","zip":"0593"},  
{"label":"åéGuzhen0552","name":"åé","pinyin":"Guzhen","zip":"0552"},  
{"label":"æåHaian0513","name":"æå","pinyin":"Haian","zip":"0513"},  
{"label":"æäHaifeng0660","name":"æä","pinyin":"Haifeng","zip":"0660"},  
{"label":"æéHaimen0513","name":"æé","pinyin":"Haimen","zip":"0513"},  
{"label":"æåHaining0573","name":"æå","pinyin":"Haining","zip":"0573"},  
{"label":"æçHaiyan0573","name":"æç","pinyin":"Haiyan","zip":"0573"},  
{"label":"æéHaiyang0535","name":"æé","pinyin":"Haiyang","zip":"0535"},  
{"label":"ååHanshan0565","name":"åå","pinyin":"Hanshan","zip":"0565"},  
{"label":"ååHechuan023","name":"åå","pinyin":"Hechuan","zip":"023"},  
{"label":"æåHengfeng0793","name":"æå","pinyin":"Hengfeng","zip":"0793"},  
{"label":"æåHengxian0771","name":"æå","pinyin":"Hengxian","zip":"0771"},  
{"label":"ååHeping0762","name":"åå","pinyin":"Heping","zip":"0762"},  
{"label":"éåHeshan0750","name":"éå","pinyin":"Heshan","zip":"0750"},  
{"label":"ååHexian0565","name":"åå","pinyin":"Hexian","zip":"0565"},  
{"label":"ææHongze0517","name":"ææ","pinyin":"Hongze","zip":"0517"},  
{"label":"ååHuaan0596","name":"åå","pinyin":"Huaan","zip":"0596"},  
{"label":"æçHuadian0423","name":"æç","pinyin":"Huadian","zip":"0423"},  
{"label":"æéHuaiji0758","name":"æé","pinyin":"Huaiji","zip":"0758"},  
{"label":"æåHuaining0556","name":"æå","pinyin":"Huaining","zip":"0556"},  
{"label":"æèHuaiyuan0552","name":"æè","pinyin":"Huaiyuan","zip":"0552"},  
{"label":"æåHuantai0533","name":"æå","pinyin":"Huantai","zip":"0533"},  
{"label":"ååHuazhou0668","name":"åå","pinyin":"Huazhou","zip":"0668"},  
{"label":"æåHuian0595","name":"æå","pinyin":"Huian","zip":"0595"},  
{"label":"äæHuichang0797","name":"äæ","pinyin":"Huichang","zip":"0797"},  
{"label":"æäHuidong0752","name":"æä","pinyin":"Huidong","zip":"0752"},  
{"label":"ææHuilai0663","name":"ææ","pinyin":"Huilai","zip":"0663"},  
{"label":"ææHuimin0543","name":"ææ","pinyin":"Huimin","zip":"0543"},  
{"label":"æåHukou0792","name":"æå","pinyin":"Hukou","zip":"0792"},  
{"label":"ååHulan0451","name":"åå","pinyin":"Hulan","zip":"0451"},  
{"label":"ééHuoqiu0564","name":"éé","pinyin":"Huoqiu","zip":"0564"},  
{"label":"éåHuoshan0564","name":"éå","pinyin":"Huoshan","zip":"0564"},  
{"label":"æåHuxian029","name":"æå","pinyin":"Huxian","zip":"029"},  
{"label":"ååJiande0571","name":"åå","pinyin":"Jiande","zip":"0571"},  
{"label":"æéJiangdu0514","name":"æé","pinyin":"Jiangdu","zip":"0514"},  
{"label":"ææJiangjin023","name":"ææ","pinyin":"Jiangjin","zip":"023"},  
{"label":"åäJiangle0598","name":"åä","pinyin":"Jiangle","zip":"0598"},  
{"label":"æåJiangshan0570","name":"æå","pinyin":"Jiangshan","zip":"0570"},  
{"label":"ååJiangyan0523","name":"åå","pinyin":"Jiangyan","zip":"0523"},  
{"label":"æéJiangyin0510","name":"æé","pinyin":"Jiangyin","zip":"0510"},  
{"label":"åæJianhu0515","name":"åæ","pinyin":"Jianhu","zip":"0515"},  
{"label":"ååJianning0598","name":"åå","pinyin":"Jianning","zip":"0598"},  
{"label":"åçJianou0599","name":"åç","pinyin":"Jianou","zip":"0599"},  
{"label":"åéJianyang0599","name":"åé","pinyin":"Jianyang","zip":"0599"},  
{"label":"ååJian0796","name":"åå","pinyin":"Jian","zip":"0796"},  
{"label":"èæJiaohe0423","name":"èæ","pinyin":"Jiaohe","zip":"0423"},  
{"label":"èåJiaoling0753","name":"èå","pinyin":"Jiaoling","zip":"0753"},  
{"label":"èåJiaonan0532","name":"èå","pinyin":"Jiaonan","zip":"0532"},  
{"label":"èåJiaozhou0532","name":"èå","pinyin":"Jiaozhou","zip":"0532"},  
{"label":"ååJiashan0573","name":"åå","pinyin":"Jiashan","zip":"0573"},  
{"label":"åçJiaxiang0537","name":"åç","pinyin":"Jiaxiang","zip":"0537"},  
{"label":"æäJiedong0663","name":"æä","pinyin":"Jiedong","zip":"0663"},  
{"label":"çéJieshou0558","name":"çé","pinyin":"Jieshou","zip":"0558"},  
{"label":"æèJiexi0663","name":"æè","pinyin":"Jiexi","zip":"0663"},  
{"label":"ååJimo0532","name":"åå","pinyin":"Jimo","zip":"0532"},  
{"label":"éåJingan0795","name":"éå","pinyin":"Jingan","zip":"0795"},  
{"label":"æåJingde0563","name":"æå","pinyin":"Jingde","zip":"0563"},  
{"label":"äååJinggangshan0796","name":"äåå","pinyin":"Jinggangshan","zip":"0796"},  
{"label":"éæJingjiang0523","name":"éæ","pinyin":"Jingjiang","zip":"0523"},  
{"label":"æåJingning0578","name":"æå","pinyin":"Jingning","zip":"0578"},  
{"label":"æåJingxian0563","name":"æå","pinyin":"Jingxian","zip":"0563"},  
{"label":"äéJingxing0311","name":"äé","pinyin":"Jingxing","zip":"0311"},  
{"label":"éæJinhu0517","name":"éæ","pinyin":"Jinhu","zip":"0517"},  
{"label":"ææJinjiang0595","name":"ææ","pinyin":"Jinjiang","zip":"0595"},  
{"label":"ééJinmen0595","name":"éé","pinyin":"Jinmen","zip":"0595"},  
{"label":"æåJinning0871","name":"æå","pinyin":"Jinning","zip":"0871"},  
{"label":"éåJintan0519","name":"éå","pinyin":"Jintan","zip":"0519"},  
{"label":"éåJintang028","name":"éå","pinyin":"Jintang","zip":"028"},  
{"label":"èèJinxian0791","name":"èè","pinyin":"Jinxian","zip":"0791"},  
{"label":"éæJinxi0794","name":"éæ","pinyin":"Jinxi","zip":"0794"},  
{"label":"éäJinxiang0537","name":"éä","pinyin":"Jinxiang","zip":"0537"},  
{"label":"çäJinyun0578","name":"çä","pinyin":"Jinyun","zip":"0578"},  
{"label":"éåJinzhai0564","name":"éå","pinyin":"Jinzhai","zip":"0564"},  
{"label":"æåJinzhou0311","name":"æå","pinyin":"Jinzhou","zip":"0311"},  
{"label":"åæJishui0796","name":"åæ","pinyin":"Jishui","zip":"0796"},  
{"label":"äæJiujiang0792","name":"äæ","pinyin":"Jiujiang","zip":"0792"},  
{"label":"äåJiutai0431","name":"äå","pinyin":"Jiutai","zip":"0431"},  
{"label":"çæJixi0563","name":"çæ","pinyin":"Jixi","zip":"0563"},  
{"label":"æéJiyang0531","name":"æé","pinyin":"Jiyang","zip":"0531"},  
{"label":"ææJiyuan0391","name":"ææ","pinyin":"Jiyuan","zip":"0391"},  
{"label":"éåJuancheng0530","name":"éå","pinyin":"Juancheng","zip":"0530"},  
{"label":"èåJunan0539","name":"èå","pinyin":"Junan","zip":"0539"},  
{"label":"ååJurong0511","name":"åå","pinyin":"Jurong","zip":"0511"},  
{"label":"èåJuxian0633","name":"èå","pinyin":"Juxian","zip":"0633"},  
{"label":"åéJuye0530","name":"åé","pinyin":"Juye","zip":"0530"},  
{"label":"ååKaihua0570","name":"åå","pinyin":"Kaihua","zip":"0570"},  
{"label":"ååKaiping0750","name":"åå","pinyin":"Kaiping","zip":"0750"},  
{"label":"ååKaixian023","name":"åå","pinyin":"Kaixian","zip":"023"},  
{"label":"åéKaiyang0851","name":"åé","pinyin":"Kaiyang","zip":"0851"},  
{"label":"ååKangping024","name":"åå","pinyin":"Kangping","zip":"024"},  
{"label":"ååKenli0546","name":"åå","pinyin":"Kenli","zip":"0546"},  
{"label":"æåKunshan0512","name":"æå","pinyin":"Kunshan","zip":"0512"},  
{"label":"æåLaian0550","name":"æå","pinyin":"Laian","zip":"0550"},  
{"label":"èèLaixi0532","name":"èè","pinyin":"Laixi","zip":"0532"},  
{"label":"èéLaiyang0535","name":"èé","pinyin":"Laiyang","zip":"0535"},  
{"label":"èåLaizhou0535","name":"èå","pinyin":"Laizhou","zip":"0535"},  
{"label":"éæLangxi0563","name":"éæ","pinyin":"Langxi","zip":"0563"},  
{"label":"èçLantian029","name":"èç","pinyin":"Lantian","zip":"029"},  
{"label":"åæLanxi0579","name":"åæ","pinyin":"Lanxi","zip":"0579"},  
{"label":"äåLean0794","name":"äå","pinyin":"Lean","zip":"0794"},  
{"label":"äæLechang0751","name":"äæ","pinyin":"Lechang","zip":"0751"},  
{"label":"éåLeizhou0759","name":"éå","pinyin":"Leizhou","zip":"0759"},  
{"label":"äéLeling0534","name":"äé","pinyin":"Leling","zip":"0534"},  
{"label":"äåLeping0798","name":"äå","pinyin":"Leping","zip":"0798"},  
{"label":"äæLeqing0577","name":"äæ","pinyin":"Leqing","zip":"0577"},  
{"label":"ääLeting0315","name":"ää","pinyin":"Leting","zip":"0315"},  
{"label":"èåLiancheng0597","name":"èå","pinyin":"Liancheng","zip":"0597"},  
{"label":"æåLiangping023","name":"æå","pinyin":"Liangping","zip":"023"},  
{"label":"æåLiangshan0537","name":"æå","pinyin":"Liangshan","zip":"0537"},  
{"label":"èèLianhua0799","name":"èè","pinyin":"Lianhua","zip":"0799"},  
{"label":"èæLianjiang0591","name":"èæ","pinyin":"Lianjiang","zip":"0591"},  
{"label":"åæLianjiang0759","name":"åæ","pinyin":"Lianjiang","zip":"0759"},  
{"label":"èåLiannan0763","name":"èå","pinyin":"Liannan","zip":"0763"},  
{"label":"èåLianping0762","name":"èå","pinyin":"Lianping","zip":"0762"},  
{"label":"èåLianshan0763","name":"èå","pinyin":"Lianshan","zip":"0763"},  
{"label":"ææLianshui0517","name":"ææ","pinyin":"Lianshui","zip":"0517"},  
{"label":"èåLianzhou0763","name":"èå","pinyin":"Lianzhou","zip":"0763"},  
{"label":"èäLiaozhong024","name":"èä","pinyin":"Liaozhong","zip":"024"},  
{"label":"éåLichuan0794","name":"éå","pinyin":"Lichuan","zip":"0794"},  
{"label":"åæLijin0546","name":"åæ","pinyin":"Lijin","zip":"0546"},  
{"label":"äåLinan0571","name":"äå","pinyin":"Linan","zip":"0571"},  
{"label":"ççLingbi0557","name":"çç","pinyin":"Lingbi","zip":"0557"},  
{"label":"çåLingshou0311","name":"çå","pinyin":"Lingshou","zip":"0311"},  
{"label":"éåLingxian0534","name":"éå","pinyin":"Lingxian","zip":"0534"},  
{"label":"äæLinhai0576","name":"äæ","pinyin":"Linhai","zip":"0576"},  
{"label":"äæLinqing0635","name":"äæ","pinyin":"Linqing","zip":"0635"},  
{"label":"äæLinquan0558","name":"äæ","pinyin":"Linquan","zip":"0558"},  
{"label":"äæLinqu0536","name":"äæ","pinyin":"Linqu","zip":"0536"},  
{"label":"äæLinshu0539","name":"äæ","pinyin":"Linshu","zip":"0539"},  
{"label":"äéLinyi0534","name":"äé","pinyin":"Linyi","zip":"0534"},  
{"label":"ææLishui025","name":"ææ","pinyin":"Lishui","zip":"025"},  
{"label":"æåLiucheng0772","name":"æå","pinyin":"Liucheng","zip":"0772"},  
{"label":"ææLiujiang0772","name":"ææ","pinyin":"Liujiang","zip":"0772"},  
{"label":"æéLiuyang0731","name":"æé","pinyin":"Liuyang","zip":"0731"},  
{"label":"åèLixin0558","name":"åè","pinyin":"Lixin","zip":"0558"},  
{"label":"æéLiyang0519","name":"æé","pinyin":"Liyang","zip":"0519"},  
{"label":"éåLongan0771","name":"éå","pinyin":"Longan","zip":"0771"},  
{"label":"éåLongchuan0762","name":"éå","pinyin":"Longchuan","zip":"0762"},  
{"label":"éæLonghai0596","name":"éæ","pinyin":"Longhai","zip":"0596"},  
{"label":"éåLongkou0535","name":"éå","pinyin":"Longkou","zip":"0535"},  
{"label":"ééLongmen0752","name":"éé","pinyin":"Longmen","zip":"0752"},  
{"label":"éåLongnan0797","name":"éå","pinyin":"Longnan","zip":"0797"},  
{"label":"éæLongquan0578","name":"éæ","pinyin":"Longquan","zip":"0578"},  
{"label":"éæLongyou0570","name":"éæ","pinyin":"Longyou","zip":"0570"},  
{"label":"æåLuancheng0311","name":"æå","pinyin":"Luancheng","zip":"0311"},  
{"label":"æåLuanchuan0379","name":"æå","pinyin":"Luanchuan","zip":"0379"},  
{"label":"æåLuannan0315","name":"æå","pinyin":"Luannan","zip":"0315"},  
{"label":"æåLuanxian0315","name":"æå","pinyin":"Luanxian","zip":"0315"},  
{"label":"éäLufeng0660","name":"éä","pinyin":"Lufeng","zip":"0660"},  
{"label":"éæLuhe0660","name":"éæ","pinyin":"Luhe","zip":"0660"},  
{"label":"åæLujiang0565","name":"åæ","pinyin":"Lujiang","zip":"0565"},  
{"label":"çåLuoding0766","name":"çå","pinyin":"Luoding","zip":"0766"},  
{"label":"æåLuoning0379","name":"æå","pinyin":"Luoning","zip":"0379"},  
{"label":"çæLuoyuan0591","name":"çæ","pinyin":"Luoyuan","zip":"0591"},  
{"label":"éæLuquan0311","name":"éæ","pinyin":"Luquan","zip":"0311"},  
{"label":"çåLuquan0871","name":"çå","pinyin":"Luquan","zip":"0871"},  
{"label":"èæLuxi0799","name":"èæ","pinyin":"Luxi","zip":"0799"},  
{"label":"éåLuzhai0772","name":"éå","pinyin":"Luzhai","zip":"0772"},  
{"label":"éåMashan0771","name":"éå","pinyin":"Mashan","zip":"0771"},  
{"label":"æåMeixian0753","name":"æå","pinyin":"Meixian","zip":"0753"},  
{"label":"èåMengcheng0558","name":"èå","pinyin":"Mengcheng","zip":"0558"},  
{"label":"åæMengjin0379","name":"åæ","pinyin":"Mengjin","zip":"0379"},  
{"label":"èéMengyin0539","name":"èé","pinyin":"Mengyin","zip":"0539"},  
{"label":"ååMengzhou0391","name":"åå","pinyin":"Mengzhou","zip":"0391"},  
{"label":"æåMingguang0550","name":"æå","pinyin":"Mingguang","zip":"0550"},  
{"label":"ææMingxi0598","name":"ææ","pinyin":"Mingxi","zip":"0598"},  
{"label":"éäMinhou0591","name":"éä","pinyin":"Minhou","zip":"0591"},  
{"label":"éæMinqing0591","name":"éæ","pinyin":"Minqing","zip":"0591"},  
{"label":"æåMulan0451","name":"æå","pinyin":"Mulan","zip":"0451"},  
{"label":"ååNanan0595","name":"åå","pinyin":"Nanan","zip":"0595"},  
{"label":"åæNanao0754","name":"åæ","pinyin":"Nanao","zip":"0754"},  
{"label":"ååNancheng0794","name":"åå","pinyin":"Nancheng","zip":"0794"},  
{"label":"ååNanchuan023","name":"åå","pinyin":"Nanchuan","zip":"023"},  
{"label":"åäNanfeng0794","name":"åä","pinyin":"Nanfeng","zip":"0794"},  
{"label":"åéNanjing0596","name":"åé","pinyin":"Nanjing","zip":"0596"},  
{"label":"ååNankang0797","name":"åå","pinyin":"Nankang","zip":"0797"},  
{"label":"åéNanling0553","name":"åé","pinyin":"Nanling","zip":"0553"},  
{"label":"åéNanxiong0751","name":"åé","pinyin":"Nanxiong","zip":"0751"},  
{"label":"åéNingdu0797","name":"åé","pinyin":"Ningdu","zip":"0797"},  
{"label":"ååNingguo0563","name":"åå","pinyin":"Ningguo","zip":"0563"},  
{"label":"åæNinghai0574","name":"åæ","pinyin":"Ninghai","zip":"0574"},  
{"label":"ååNinghua0598","name":"åå","pinyin":"Ninghua","zip":"0598"},  
{"label":"åæNingjin0534","name":"åæ","pinyin":"Ningjin","zip":"0534"},  
{"label":"åäNingxiang0731","name":"åä","pinyin":"Ningxiang","zip":"0731"},  
{"label":"åéNingyang0538","name":"åé","pinyin":"Ningyang","zip":"0538"},  
{"label":"ååNongan0431","name":"åå","pinyin":"Nongan","zip":"0431"},  
{"label":"çåPanan0579","name":"çå","pinyin":"Panan","zip":"0579"},  
{"label":"ççPanshi0423","name":"çç","pinyin":"Panshi","zip":"0423"},  
{"label":"æåPeixian0516","name":"æå","pinyin":"Peixian","zip":"0516"},  
{"label":"èèPenglai0535","name":"èè","pinyin":"Penglai","zip":"0535"},  
{"label":"åæPengshui023","name":"åæ","pinyin":"Pengshui","zip":"023"},  
{"label":"åæPengze0792","name":"åæ","pinyin":"Pengze","zip":"0792"},  
{"label":"ååPengzhou028","name":"åå","pinyin":"Pengzhou","zip":"028"},  
{"label":"ååPingdu0532","name":"åå","pinyin":"Pingdu","zip":"0532"},  
{"label":"ååPinghe0596","name":"åå","pinyin":"Pinghe","zip":"0596"},  
{"label":"åæPinghu0573","name":"åæ","pinyin":"Pinghu","zip":"0573"},  
{"label":"ååPingnan0593","name":"åå","pinyin":"Pingnan","zip":"0593"},  
{"label":"ååPingshan0311","name":"åå","pinyin":"Pingshan","zip":"0311"},  
{"label":"åæPingtan0591","name":"åæ","pinyin":"Pingtan","zip":"0591"},  
{"label":"åéPingyang0577","name":"åé","pinyin":"Pingyang","zip":"0577"},  
{"label":"åéPingyin0531","name":"åé","pinyin":"Pingyin","zip":"0531"},  
{"label":"åéPingyi0539","name":"åé","pinyin":"Pingyi","zip":"0539"},  
{"label":"ååPingyuan0534","name":"åå","pinyin":"Pingyuan","zip":"0534"},  
{"label":"åèPingyuan0753","name":"åè","pinyin":"Pingyuan","zip":"0753"},  
{"label":"éåPixian028","name":"éå","pinyin":"Pixian","zip":"028"},  
{"label":"éåPizhou0516","name":"éå","pinyin":"Pizhou","zip":"0516"},  
{"label":"ééPoyang0793","name":"éé","pinyin":"Poyang","zip":"0793"},  
{"label":"æåPucheng0599","name":"æå","pinyin":"Pucheng","zip":"0599"},  
{"label":"ææPujiang0579","name":"ææ","pinyin":"Pujiang","zip":"0579"},  
{"label":"èæPujiang028","name":"èæ","pinyin":"Pujiang","zip":"028"},  
{"label":"æååPulandian0411","name":"æåå","pinyin":"Pulandian","zip":"0411"},  
{"label":"æåPuning0663","name":"æå","pinyin":"Puning","zip":"0663"},  
{"label":"èåQianan0315","name":"èå","pinyin":"Qianan","zip":"0315"},  
{"label":"æåQianshan0556","name":"æå","pinyin":"Qianshan","zip":"0556"},  
{"label":"éåQianshan0793","name":"éå","pinyin":"Qianshan","zip":"0793"},  
{"label":"èèQianxi0315","name":"èè","pinyin":"Qianxi","zip":"0315"},  
{"label":"åäQidong0513","name":"åä","pinyin":"Qidong","zip":"0513"},  
{"label":"éæQihe0534","name":"éæ","pinyin":"Qihe","zip":"0534"},  
{"label":"çæQijiang023","name":"çæ","pinyin":"Qijiang","zip":"023"},  
{"label":"çéQimen0559","name":"çé","pinyin":"Qimen","zip":"0559"},  
{"label":"ææQingliu0598","name":"ææ","pinyin":"Qingliu","zip":"0598"},  
{"label":"éçQingtian0578","name":"éç","pinyin":"Qingtian","zip":"0578"},  
{"label":"ææQingxin0763","name":"ææ","pinyin":"Qingxin","zip":"0763"},  
{"label":"ééQingyang0566","name":"éé","pinyin":"Qingyang","zip":"0566"},  
{"label":"ååQingyuan0578","name":"åå","pinyin":"Qingyuan","zip":"0578"},  
{"label":"åäQingyun0534","name":"åä","pinyin":"Qingyun","zip":"0534"},  
{"label":"æéQingzhen0851","name":"æé","pinyin":"Qingzhen","zip":"0851"},  
{"label":"éåQingzhou0536","name":"éå","pinyin":"Qingzhou","zip":"0536"},  
{"label":"æéQinyang0391","name":"æé","pinyin":"Qinyang","zip":"0391"},  
{"label":"éåQionglai028","name":"éå","pinyin":"Qionglai","zip":"028"},  
{"label":"æéQixia0535","name":"æé","pinyin":"Qixia","zip":"0535"},  
{"label":"åæQuanjiao0550","name":"åæ","pinyin":"Quanjiao","zip":"0550"},  
{"label":"ååQuannan0797","name":"åå","pinyin":"Quannan","zip":"0797"},  
{"label":"æéQufu0537","name":"æé","pinyin":"Qufu","zip":"0537"},  
{"label":"ææQujiang0751","name":"ææ","pinyin":"Qujiang","zip":"0751"},  
{"label":"éåRaoping0768","name":"éå","pinyin":"Raoping","zip":"0768"},  
{"label":"äåRenhua0751","name":"äå","pinyin":"Renhua","zip":"0751"},  
{"label":"èåRongan0772","name":"èå","pinyin":"Rongan","zip":"0772"},  
{"label":"èæRongchang023","name":"èæ","pinyin":"Rongchang","zip":"023"},  
{"label":"èæRongcheng0631","name":"èæ","pinyin":"Rongcheng","zip":"0631"},  
{"label":"èæRongshui0772","name":"èæ","pinyin":"Rongshui","zip":"0772"},  
{"label":"åäRudong0513","name":"åä","pinyin":"Rudong","zip":"0513"},  
{"label":"åçRugao0513","name":"åç","pinyin":"Rugao","zip":"0513"},  
{"label":"çåRuian0577","name":"çå","pinyin":"Ruian","zip":"0577"},  
{"label":"çæRuichang0792","name":"çæ","pinyin":"Ruichang","zip":"0792"},  
{"label":"çéRuijin0797","name":"çé","pinyin":"Ruijin","zip":"0797"},  
{"label":"äåRushan0631","name":"äå","pinyin":"Rushan","zip":"0631"},  
{"label":"æéRuyang0379","name":"æé","pinyin":"Ruyang","zip":"0379"},  
{"label":"äæRuyuan0751","name":"äæ","pinyin":"Ruyuan","zip":"0751"},  
{"label":"äæSanjiang0772","name":"äæ","pinyin":"Sanjiang","zip":"0772"},  
{"label":"äéSanmen0576","name":"äé","pinyin":"Sanmen","zip":"0576"},  
{"label":"èåSaoan0596","name":"èå","pinyin":"Saoan","zip":"0596"},  
{"label":"äéShanggao0795","name":"äé","pinyin":"Shanggao","zip":"0795"},  
{"label":"äæShanghang0597","name":"äæ","pinyin":"Shanghang","zip":"0597"},  
{"label":"åæShanghe0531","name":"åæ","pinyin":"Shanghe","zip":"0531"},  
{"label":"äæShangli0799","name":"äæ","pinyin":"Shangli","zip":"0799"},  
{"label":"äæShanglin0771","name":"äæ","pinyin":"Shanglin","zip":"0771"},  
{"label":"äéShangrao0793","name":"äé","pinyin":"Shangrao","zip":"0793"},  
{"label":"äçShangyou0797","name":"äç","pinyin":"Shangyou","zip":"0797"},  
{"label":"äèShangyu0575","name":"äè","pinyin":"Shangyu","zip":"0575"},  
{"label":"ååShangzhi0451","name":"åå","pinyin":"Shangzhi","zip":"0451"},  
{"label":"éæShaowu0599","name":"éæ","pinyin":"Shaowu","zip":"0599"},  
{"label":"çåShaoxing0575","name":"çå","pinyin":"Shaoxing","zip":"0575"},  
{"label":"æåShaxian0598","name":"æå","pinyin":"Shaxian","zip":"0598"},  
{"label":"åæShengsi0580","name":"åæ","pinyin":"Shengsi","zip":"0580"},  
{"label":"ååShengzhou0575","name":"åå","pinyin":"Shengzhou","zip":"0575"},  
{"label":"èåShenxian0635","name":"èå","pinyin":"Shenxian","zip":"0635"},  
{"label":"ææShenze0311","name":"ææ","pinyin":"Shenze","zip":"0311"},  
{"label":"æåShexian0559","name":"æå","pinyin":"Shexian","zip":"0559"},  
{"label":"åéSheyang0515","name":"åé","pinyin":"Sheyang","zip":"0515"},  
{"label":"çåShicheng0797","name":"çå","pinyin":"Shicheng","zip":"0797"},  
{"label":"çæShilin0871","name":"çæ","pinyin":"Shilin","zip":"0871"},  
{"label":"ççShishi0595","name":"çç","pinyin":"Shishi","zip":"0595"},  
{"label":"çåShitai0566","name":"çå","pinyin":"Shitai","zip":"0566"},  
{"label":"ååShixing0751","name":"åå","pinyin":"Shixing","zip":"0751"},  
{"label":"çæShizhu023","name":"çæ","pinyin":"Shizhu","zip":"023"},  
{"label":"ååShouguang0536","name":"åå","pinyin":"Shouguang","zip":"0536"},  
{"label":"ååShouning0593","name":"åå","pinyin":"Shouning","zip":"0593"},  
{"label":"ååShouxian0564","name":"åå","pinyin":"Shouxian","zip":"0564"},  
{"label":"ååShuangcheng0451","name":"åå","pinyin":"Shuangcheng","zip":"0451"},  
{"label":"åæShuangliu028","name":"åæ","pinyin":"Shuangliu","zip":"028"},  
{"label":"èåShucheng0564","name":"èå","pinyin":"Shucheng","zip":"0564"},  
{"label":"èåShulan0423","name":"èå","pinyin":"Shulan","zip":"0423"},  
{"label":"éæShunchang0599","name":"éæ","pinyin":"Shunchang","zip":"0599"},  
{"label":"æéShuyang0527","name":"æé","pinyin":"Shuyang","zip":"0527"},  
{"label":"ææSihong0527","name":"ææ","pinyin":"Sihong","zip":"0527"},  
{"label":"åäSihui0758","name":"åä","pinyin":"Sihui","zip":"0758"},  
{"label":"ææSishui0537","name":"ææ","pinyin":"Sishui","zip":"0537"},  
{"label":"æåSixian0557","name":"æå","pinyin":"Sixian","zip":"0557"},  
{"label":"æéSiyang0527","name":"æé","pinyin":"Siyang","zip":"0527"},  
{"label":"åæSongming0871","name":"åæ","pinyin":"Songming","zip":"0871"},  
{"label":"ææSongxi0599","name":"ææ","pinyin":"Songxi","zip":"0599"},  
{"label":"ååSongxian0379","name":"åå","pinyin":"Songxian","zip":"0379"},  
{"label":"æéSongyang0578","name":"æé","pinyin":"Songyang","zip":"0578"},  
{"label":"éæSuichang0578","name":"éæ","pinyin":"Suichang","zip":"0578"},  
{"label":"éåSuichuan0796","name":"éå","pinyin":"Suichuan","zip":"0796"},  
{"label":"çåSuining0516","name":"çå","pinyin":"Suining","zip":"0516"},  
{"label":"ææSuixi0561","name":"ææ","pinyin":"Suixi","zip":"0561"},  
{"label":"éæSuixi0759","name":"éæ","pinyin":"Suixi","zip":"0759"},  
{"label":"åæSusong0556","name":"åæ","pinyin":"Susong","zip":"0556"},  
{"label":"åèSuyu0527","name":"åè","pinyin":"Suyu","zip":"0527"},  
{"label":"åäTaicang0512","name":"åä","pinyin":"Taicang","zip":"0512"},  
{"label":"ååTaihe0558","name":"åå","pinyin":"Taihe","zip":"0558"},  
{"label":"æåTaihe0796","name":"æå","pinyin":"Taihe","zip":"0796"},  
{"label":"åæTaihu0556","name":"åæ","pinyin":"Taihu","zip":"0556"},  
{"label":"æåTaining0598","name":"æå","pinyin":"Taining","zip":"0598"},  
{"label":"ååTaishan0750","name":"åå","pinyin":"Taishan","zip":"0750"},  
{"label":"æéTaishun0577","name":"æé","pinyin":"Taishun","zip":"0577"},  
{"label":"æåTaixing0523","name":"æå","pinyin":"Taixing","zip":"0523"},  
{"label":"éåTancheng0539","name":"éå","pinyin":"Tancheng","zip":"0539"},  
{"label":"åæTanghai0315","name":"åæ","pinyin":"Tanghai","zip":"0315"},  
{"label":"æåTengzhou0623","name":"æå","pinyin":"Tengzhou","zip":"0623"},  
{"label":"åéTianchang0550","name":"åé","pinyin":"Tianchang","zip":"0550"},  
{"label":"ååTiantai0576","name":"åå","pinyin":"Tiantai","zip":"0576"},  
{"label":"æåTongcheng0556","name":"æå","pinyin":"Tongcheng","zip":"0556"},  
{"label":"ééTonggu0795","name":"éé","pinyin":"Tonggu","zip":"0795"},  
{"label":"éæTonghe0451","name":"éæ","pinyin":"Tonghe","zip":"0451"},  
{"label":"éæTongliang023","name":"éæ","pinyin":"Tongliang","zip":"023"},  
{"label":"ééTongling0562","name":"éé","pinyin":"Tongling","zip":"0562"},  
{"label":"æåTonglu0571","name":"æå","pinyin":"Tonglu","zip":"0571"},  
{"label":"æåTongnan023","name":"æå","pinyin":"Tongnan","zip":"023"},  
{"label":"éåTongshan0516","name":"éå","pinyin":"Tongshan","zip":"0516"},  
{"label":"æäTongxiang0573","name":"æä","pinyin":"Tongxiang","zip":"0573"},  
{"label":"éåTongzhou0513","name":"éå","pinyin":"Tongzhou","zip":"0513"},  
{"label":"çæåWafangdian0411","name":"çæå","pinyin":"Wafangdian","zip":"0411"},  
{"label":"äåWanan0796","name":"äå","pinyin":"Wanan","zip":"0796"},  
{"label":"æåWangcheng0731","name":"æå","pinyin":"Wangcheng","zip":"0731"},  
{"label":"ææWangjiang0556","name":"ææ","pinyin":"Wangjiang","zip":"0556"},  
{"label":"äåWannian0793","name":"äå","pinyin":"Wannian","zip":"0793"},  
{"label":"äèWanzai0795","name":"äè","pinyin":"Wanzai","zip":"0795"},  
{"label":"ååWeishan0537","name":"åå","pinyin":"Weishan","zip":"0537"},  
{"label":"ææWencheng0577","name":"ææ","pinyin":"Wencheng","zip":"0577"},  
{"label":"æçWendeng0631","name":"æç","pinyin":"Wendeng","zip":"0631"},  
{"label":"çæWengyuan0751","name":"çæ","pinyin":"Wengyuan","zip":"0751"},  
{"label":"æåWenling0576","name":"æå","pinyin":"Wenling","zip":"0576"},  
{"label":"æäWenshang0537","name":"æä","pinyin":"Wenshang","zip":"0537"},  
{"label":"æåWenxian0391","name":"æå","pinyin":"Wenxian","zip":"0391"},  
{"label":"æéWoyang0558","name":"æé","pinyin":"Woyang","zip":"0558"},  
{"label":"äåWuchang0451","name":"äå","pinyin":"Wuchang","zip":"0451"},  
{"label":"æåWucheng0534","name":"æå","pinyin":"Wucheng","zip":"0534"},  
{"label":"ååWuchuan0759","name":"åå","pinyin":"Wuchuan","zip":"0759"},  
{"label":"ææWudi0543","name":"ææ","pinyin":"Wudi","zip":"0543"},  
{"label":"äæWuhe0552","name":"äæ","pinyin":"Wuhe","zip":"0552"},  
{"label":"èæWuhu0553","name":"èæ","pinyin":"Wuhu","zip":"0553"},  
{"label":"äåWuhua0753","name":"äå","pinyin":"Wuhua","zip":"0753"},  
{"label":"ææWuji0311","name":"ææ","pinyin":"Wuji","zip":"0311"},  
{"label":"åæWujiang0512","name":"åæ","pinyin":"Wujiang","zip":"0512"},  
{"label":"äèWulian0633","name":"äè","pinyin":"Wulian","zip":"0633"},  
{"label":"æéWulong023","name":"æé","pinyin":"Wulong","zip":"023"},  
{"label":"æéWuming0771","name":"æé","pinyin":"Wuming","zip":"0771"},  
{"label":"æåWuning0792","name":"æå","pinyin":"Wuning","zip":"0792"},  
{"label":"æåWuping0597","name":"æå","pinyin":"Wuping","zip":"0597"},  
{"label":"ååWushan023","name":"åå","pinyin":"Wushan","zip":"023"},  
{"label":"æäWuwei0565","name":"æä","pinyin":"Wuwei","zip":"0565"},  
{"label":"åæWuxi023","name":"åæ","pinyin":"Wuxi","zip":"023"},  
{"label":"æäWuyi0579","name":"æä","pinyin":"Wuyi","zip":"0579"},  
{"label":"æååWuyishan0599","name":"æåå","pinyin":"Wuyishan","zip":"0599"},  
{"label":"åæWuyuan0793","name":"åæ","pinyin":"Wuyuan","zip":"0793"},  
{"label":"æéWuzhi0391","name":"æé","pinyin":"Wuzhi","zip":"0391"},  
{"label":"åæXiajiang0796","name":"åæ","pinyin":"Xiajiang","zip":"0796"},  
{"label":"åæXiajin0534","name":"åæ","pinyin":"Xiajin","zip":"0534"},  
{"label":"èåXiangshan0574","name":"èå","pinyin":"Xiangshan","zip":"0574"},  
{"label":"åæXiangshui0515","name":"åæ","pinyin":"Xiangshui","zip":"0515"},  
{"label":"äåXianju0576","name":"äå","pinyin":"Xianju","zip":"0576"},  
{"label":"äæXianyou0594","name":"äæ","pinyin":"Xianyou","zip":"0594"},  
{"label":"èåXiaoxian0557","name":"èå","pinyin":"Xiaoxian","zip":"0557"},  
{"label":"éæXiapu0593","name":"éæ","pinyin":"Xiapu","zip":"0593"},  
{"label":"æçXifeng0851","name":"æç","pinyin":"Xifeng","zip":"0851"},  
{"label":"æåXinan0379","name":"æå","pinyin":"Xinan","zip":"0379"},  
{"label":"ææXinchang0575","name":"ææ","pinyin":"Xinchang","zip":"0575"},  
{"label":"ääXinfeng0797","name":"ää","pinyin":"Xinfeng","zip":"0797"},  
{"label":"æäXinfeng0751","name":"æä","pinyin":"Xinfeng","zip":"0751"},  
{"label":"æåXingan0796","name":"æå","pinyin":"Xingan","zip":"0796"},  
{"label":"ååXingguo0797","name":"åå","pinyin":"Xingguo","zip":"0797"},  
{"label":"ååXinghua0523","name":"åå","pinyin":"Xinghua","zip":"0523"},  
{"label":"ååXingning0753","name":"åå","pinyin":"Xingning","zip":"0753"},  
{"label":"èåXingtang0311","name":"èå","pinyin":"Xingtang","zip":"0311"},  
{"label":"èéXingyang0371","name":"èé","pinyin":"Xingyang","zip":"0371"},  
{"label":"æåXingzi0792","name":"æå","pinyin":"Xingzi","zip":"0792"},  
{"label":"èéXinji0311","name":"èé","pinyin":"Xinji","zip":"0311"},  
{"label":"æåXinjian0791","name":"æå","pinyin":"Xinjian","zip":"0791"},  
{"label":"ææXinjin028","name":"ææ","pinyin":"Xinjin","zip":"028"},  
{"label":"æäXinle0311","name":"æä","pinyin":"Xinle","zip":"0311"},  
{"label":"ææXinmin024","name":"ææ","pinyin":"Xinmin","zip":"024"},  
{"label":"æåXinmi0371","name":"æå","pinyin":"Xinmi","zip":"0371"},  
{"label":"ææXintai0538","name":"ææ","pinyin":"Xintai","zip":"0538"},  
{"label":"æåXinxing0766","name":"æå","pinyin":"Xinxing","zip":"0766"},  
{"label":"ææXinyi0516","name":"ææ","pinyin":"Xinyi","zip":"0516"},  
{"label":"äåXinyi0668","name":"äå","pinyin":"Xinyi","zip":"0668"},  
{"label":"æéXinzheng0371","name":"æé","pinyin":"Xinzheng","zip":"0371"},  
{"label":"äåXiuning0559","name":"äå","pinyin":"Xiuning","zip":"0559"},  
{"label":"çåXiushan023","name":"çå","pinyin":"Xiushan","zip":"023"},  
{"label":"äæXiushui0792","name":"äæ","pinyin":"Xiushui","zip":"0792"},  
{"label":"äæXiuwen0851","name":"äæ","pinyin":"Xiuwen","zip":"0851"},  
{"label":"äæXiuwu0391","name":"äæ","pinyin":"Xiuwu","zip":"0391"},  
{"label":"åçXundian0871","name":"åç","pinyin":"Xundian","zip":"0871"},  
{"label":"åäXunwu0797","name":"åä","pinyin":"Xunwu","zip":"0797"},  
{"label":"åéXuwen0759","name":"åé","pinyin":"Xuwen","zip":"0759"},  
{"label":"ççXuyi0517","name":"çç","pinyin":"Xuyi","zip":"0517"},  
{"label":"éæYangchun0662","name":"éæ","pinyin":"Yangchun","zip":"0662"},  
{"label":"éäYangdong0662","name":"éä","pinyin":"Yangdong","zip":"0662"},  
{"label":"éèYanggu0635","name":"éè","pinyin":"Yanggu","zip":"0635"},  
{"label":"éåYangshan0763","name":"éå","pinyin":"Yangshan","zip":"0763"},  
{"label":"éäYangxin0543","name":"éä","pinyin":"Yangxin","zip":"0543"},  
{"label":"éèYangxi0662","name":"éè","pinyin":"Yangxi","zip":"0662"},  
{"label":"æäYangzhong0511","name":"æä","pinyin":"Yangzhong","zip":"0511"},  
{"label":"ååYanshi0379","name":"åå","pinyin":"Yanshi","zip":"0379"},  
{"label":"ååYanshou0451","name":"åå","pinyin":"Yanshou","zip":"0451"},  
{"label":"ååYanzhou0537","name":"åå","pinyin":"Yanzhou","zip":"0537"},  
{"label":"äåYichuan0379","name":"äå","pinyin":"Yichuan","zip":"0379"},  
{"label":"åäYifeng0795","name":"åä","pinyin":"Yifeng","zip":"0795"},  
{"label":"åéYihuang0794","name":"åé","pinyin":"Yihuang","zip":"0794"},  
{"label":"äåYilan0451","name":"äå","pinyin":"Yilan","zip":"0451"},  
{"label":"åèYiliang0871","name":"åè","pinyin":"Yiliang","zip":"0871"},  
{"label":"æåYinan0539","name":"æå","pinyin":"Yinan","zip":"0539"},  
{"label":"èåYingde0763","name":"èå","pinyin":"Yingde","zip":"0763"},  
{"label":"éäYingshang0558","name":"éä","pinyin":"Yingshang","zip":"0558"},  
{"label":"ææYishui0539","name":"ææ","pinyin":"Yishui","zip":"0539"},  
{"label":"ääYiwu0579","name":"ää","pinyin":"Yiwu","zip":"0579"},  
{"label":"éåYixian0559","name":"éå","pinyin":"Yixian","zip":"0559"},  
{"label":"ååYixing0510","name":"åå","pinyin":"Yixing","zip":"0510"},  
{"label":"åéYiyang0793","name":"åé","pinyin":"Yiyang","zip":"0793"},  
{"label":"åéYiyang0379","name":"åé","pinyin":"Yiyang","zip":"0379"},  
{"label":"ææYiyuan0533","name":"ææ","pinyin":"Yiyuan","zip":"0533"},  
{"label":"äåYizheng0514","name":"äå","pinyin":"Yizheng","zip":"0514"},  
{"label":"æåYongan0598","name":"æå","pinyin":"Yongan","zip":"0598"},  
{"label":"æåYongchuan023","name":"æå","pinyin":"Yongchuan","zip":"023"},  
{"label":"ææYongchun0595","name":"ææ","pinyin":"Yongchun","zip":"0595"},  
{"label":"æçYongdeng0931","name":"æç","pinyin":"Yongdeng","zip":"0931"},  
{"label":"æåYongding0597","name":"æå","pinyin":"Yongding","zip":"0597"},  
{"label":"æäYongfeng0796","name":"æä","pinyin":"Yongfeng","zip":"0796"},  
{"label":"æåYongji0423","name":"æå","pinyin":"Yongji","zip":"0423"},  
{"label":"æåYongjia0577","name":"æå","pinyin":"Yongjia","zip":"0577"},  
{"label":"æåYongkang0579","name":"æå","pinyin":"Yongkang","zip":"0579"},  
{"label":"éåYongning0771","name":"éå","pinyin":"Yongning","zip":"0771"},  
{"label":"ææYongtai0591","name":"ææ","pinyin":"Yongtai","zip":"0591"},  
{"label":"ææYongxin0796","name":"ææ","pinyin":"Yongxin","zip":"0796"},  
{"label":"æäYongxiu0792","name":"æä","pinyin":"Yongxiu","zip":"0792"},  
{"label":"åæYouxi0598","name":"åæ","pinyin":"Youxi","zip":"0598"},  
{"label":"ééYouyang023","name":"éé","pinyin":"Youyang","zip":"023"},  
{"label":"åæYuanshi0311","name":"åæ","pinyin":"Yuanshi","zip":"0311"},  
{"label":"çåYucheng0534","name":"çå","pinyin":"Yucheng","zip":"0534"},  
{"label":"äéYudu0797","name":"äé","pinyin":"Yudu","zip":"0797"},  
{"label":"åèYuexi0556","name":"åè","pinyin":"Yuexi","zip":"0556"},  
{"label":"äåYugan0793","name":"äå","pinyin":"Yugan","zip":"0793"},  
{"label":"ççYuhuan0576","name":"çç","pinyin":"Yuhuan","zip":"0576"},  
{"label":"äæYujiang0701","name":"äæ","pinyin":"Yujiang","zip":"0701"},  
{"label":"éåYunan0766","name":"éå","pinyin":"Yunan","zip":"0766"},  
{"label":"äåYunan0766","name":"äå","pinyin":"Yunan","zip":"0766"},  
{"label":"éåYuncheng0530","name":"éå","pinyin":"Yuncheng","zip":"0530"},  
{"label":"äåYunhe0578","name":"äå","pinyin":"Yunhe","zip":"0578"},  
{"label":"äéYunxiao0596","name":"äé","pinyin":"Yunxiao","zip":"0596"},  
{"label":"äéYunyang023","name":"äé","pinyin":"Yunyang","zip":"023"},  
{"label":"çåYushan0793","name":"çå","pinyin":"Yushan","zip":"0793"},  
{"label":"ææYushu0431","name":"ææ","pinyin":"Yushu","zip":"0431"},  
{"label":"éåYutai0537","name":"éå","pinyin":"Yutai","zip":"0537"},  
{"label":"ççYutian0315","name":"çç","pinyin":"Yutian","zip":"0315"},  
{"label":"äåYuyao0574","name":"äå","pinyin":"Yuyao","zip":"0574"},  
{"label":"æäYuzhong0931","name":"æä","pinyin":"Yuzhong","zip":"0931"},  
{"label":"èçZanhuang0311","name":"èç","pinyin":"Zanhuang","zip":"0311"},  
{"label":"ååZengcheng020","name":"åå","pinyin":"Zengcheng","zip":"020"},  
{"label":"ååæZhangjiagang0512","name":"ååæ","pinyin":"Zhangjiagang","zip":"0512"},  
{"label":"æåZhangping0597","name":"æå","pinyin":"Zhangping","zip":"0597"},  
{"label":"ææZhangpu0596","name":"ææ","pinyin":"Zhangpu","zip":"0596"},  
{"label":"çäZhangqiu0531","name":"çä","pinyin":"Zhangqiu","zip":"0531"},  
{"label":"ææZhangshu0795","name":"ææ","pinyin":"Zhangshu","zip":"0795"},  
{"label":"æåZhanhua0543","name":"æå","pinyin":"Zhanhua","zip":"0543"},  
{"label":"èåZhaoxian0311","name":"èå","pinyin":"Zhaoxian","zip":"0311"},  
{"label":"æèZhaoyuan0535","name":"æè","pinyin":"Zhaoyuan","zip":"0535"},  
{"label":"æåZhengding0311","name":"æå","pinyin":"Zhengding","zip":"0311"},  
{"label":"æåZhenghe0599","name":"æå","pinyin":"Zhenghe","zip":"0599"},  
{"label":"æèZherong0593","name":"æè","pinyin":"Zherong","zip":"0593"},  
{"label":"äçZhongmou0371","name":"äç","pinyin":"Zhongmou","zip":"0371"},  
{"label":"ååZhongxian023","name":"åå","pinyin":"Zhongxian","zip":"023"},  
{"label":"ååZhouning0593","name":"åå","pinyin":"Zhouning","zip":"0593"},  
{"label":"åèZhouzhi029","name":"åè","pinyin":"Zhouzhi","zip":"029"},  
{"label":"åæZhuanghe0411","name":"åæ","pinyin":"Zhuanghe","zip":"0411"},  
{"label":"èåZhucheng0536","name":"èå","pinyin":"Zhucheng","zip":"0536"},  
{"label":"èæZhuji0575","name":"èæ","pinyin":"Zhuji","zip":"0575"},  
{"label":"çéZijin0762","name":"çé","pinyin":"Zijin","zip":"0762"},  
{"label":"èæZixi0794","name":"èæ","pinyin":"Zixi","zip":"0794"},  
{"label":"éåZoucheng0537","name":"éå","pinyin":"Zoucheng","zip":"0537"},  
{"label":"éåZouping0543","name":"éå","pinyin":"Zouping","zip":"0543"},  
{"label":"éåZunhua0315","name":"éå","pinyin":"Zunhua","zip":"0315"}  
]